[{"OBJECT_NAME":"STARLINK-6073","OBJECT_ID":"2023-078AS","EPOCH":"2026-03-09T22:17:41.084736","MEAN_MOTION":14.99848742,"ECCENTRICITY":0.00116938,"INCLINATION":70.0028,"RA_OF_ASC_NODE":323.68,"ARG_OF_PERICENTER":295.6335,"MEAN_ANOMALY":64.3616,"EPHEMERIS_TYPE":0,"CLASSIFICATION_TYPE":"U","NORAD_CAT_ID":56807,"ELEMENT_SET_NO":999,"REV_AT_EPOCH":15321,"BSTAR":0.083955931,"MEAN_MOTION_DOT":0.01119436,"MEAN_MOTION_DDOT":0},{"OBJECT_NAME":"YAOGAN-39 04B","OBJECT_ID":"2023-163C","EPOCH":"2026-03-09T21:42:05.108256","MEAN_MOTION":15.16740453,"ECCENTRICITY":0.00026845,"INCLINATION":34.9928,"RA_OF_ASC_NODE":267.8227,"ARG_OF_PERICENTER":59.5267,"MEAN_ANOMALY":300.571,"EPHEMERIS_TYPE":0,"CLASSIFICATION_TYPE":"U","NORAD_CAT_ID":58143,"ELEMENT_SET_NO":999,"REV_AT_EPOCH":13222,"BSTAR":0.00037765963,"MEAN_MOTION_DOT":7.552e-5,"MEAN_MOTION_DDOT":0}]
